GSAT0213 (GALILEO 17)   
1 41861U 16069C   26085.84459114  .00000036  00000+0  00000+0 0  9996
2 41861  55.4449 103.3658 0005734 297.2228  62.7676  1.70474648 58110
